{
"type": "FeatureCollection",
"name": "lagos_boundary",
"crs": { "type": "name", "properties": { "name": "urn:ogc:def:crs:OGC:1.3:CRS84" } },
"features": [
{ "type": "Feature", "properties": { "id": 1179, "name": "Lagos", "code": "LA", "timestamp": "2019-07-17T10:57:52Z" }, "geometry": { "type": "MultiPolygon", "coordinates": [ [ [ [ 3.020770954000056, 6.397046121000074 ], [ 3.006941508000068, 6.396614782000029 ], [ 2.999488263000046, 6.395652081000037 ], [ 2.992195815000059, 6.394732928000053 ], [ 2.984558836000076, 6.394933808000076 ], [ 2.972902389000069, 6.395105655000066 ], [ 2.961963725000032, 6.394903911000029 ], [ 2.954068373000041, 6.39473093600003 ], [ 2.931257643000038, 6.394588870000064 ], [ 2.925151907000043, 6.394530575000033 ], [ 2.912939911000024, 6.393723646000069 ], [ 2.907029482000041, 6.39332433800007 ], [ 2.900613709000027, 6.393200592000028 ], [ 2.891819930000054, 6.393004963000067 ], [ 2.88328238500003, 6.392767028000037 ], [ 2.880095156000039, 6.392656183000042 ], [ 2.875157021000064, 6.392540122000071 ], [ 2.865424365000024, 6.392106843000022 ], [ 2.84851423200007, 6.391527710000048 ], [ 2.844006731000036, 6.391555084000061 ], [ 2.841193421000071, 6.390635133000046 ], [ 2.83375746300004, 6.390776391000031 ], [ 2.830283703000021, 6.390286991000039 ], [ 2.824541939000028, 6.389567025000076 ], [ 2.819086948000063, 6.38982363100007 ], [ 2.809986280000032, 6.388728932000049 ], [ 2.79913437700003, 6.387575950000041 ], [ 2.794282951000071, 6.386224122000044 ], [ 2.791679488000057, 6.385746203000053 ], [ 2.784904075000043, 6.385542367000028 ], [ 2.780195830000025, 6.38519572000007 ], [ 2.761478299000032, 6.382659902000057 ], [ 2.755162673000029, 6.381680409000069 ], [ 2.748502547000044, 6.38072939400007 ], [ 2.744081392000055, 6.380554889000052 ], [ 2.739919028000031, 6.379576277000069 ], [ 2.734033656000065, 6.379515830000059 ], [ 2.727287618000048, 6.378306007000049 ], [ 2.721288067000046, 6.377067778000026 ], [ 2.716149502000064, 6.376404384000068 ], [ 2.708771424000076, 6.376141777000043 ], [ 2.705958595000027, 6.374991328000021 ], [ 2.699843441000041, 6.375246297000047 ], [ 2.699867221000034, 6.383719103000033 ], [ 2.700151239000036, 6.389003993000074 ], [ 2.701550486000031, 6.401986840000063 ], [ 2.701518254000064, 6.408047018000048 ], [ 2.70148737300002, 6.411780769000075 ], [ 2.699844795000047, 6.422119474000056 ], [ 2.699728451000055, 6.424675599000068 ], [ 2.699554372000023, 6.426241574000073 ], [ 2.699168415000031, 6.431572015000029 ], [ 2.699197158000061, 6.434773496000048 ], [ 2.699392879000072, 6.440471910000042 ], [ 2.699619959000074, 6.444929582000043 ], [ 2.699417852000067, 6.450076313000068 ], [ 2.69883079300007, 6.458776588000035 ], [ 2.700560978000055, 6.459267784000076 ], [ 2.704643682000039, 6.459847242000023 ], [ 2.714189558000044, 6.460776782000039 ], [ 2.722979404000057, 6.461516907000032 ], [ 2.729841017000069, 6.459789657000044 ], [ 2.73187419900006, 6.457991724000067 ], [ 2.732905239000047, 6.457079981000049 ], [ 2.734591063000039, 6.454599340000073 ], [ 2.737731412000073, 6.452640256000052 ], [ 2.743566009000062, 6.45256663400005 ], [ 2.749891227000035, 6.452614231000041 ], [ 2.759232691000022, 6.452542139000059 ], [ 2.766353496000022, 6.452813520000063 ], [ 2.769837213000073, 6.453217205000044 ], [ 2.773416477000069, 6.454003860000057 ], [ 2.78107092700003, 6.459808934000023 ], [ 2.781732634000036, 6.460237014000029 ], [ 2.782314851000024, 6.460613668000065 ], [ 2.783166556000026, 6.460786232000032 ], [ 2.788104946000033, 6.461764840000058 ], [ 2.793675321000023, 6.462111786000037 ], [ 2.799016617000063, 6.460878901000058 ], [ 2.804066368000065, 6.459226036000075 ], [ 2.805765242000064, 6.458669968000038 ], [ 2.813079117000029, 6.455998417000046 ], [ 2.818306921000044, 6.454585548000068 ], [ 2.82367610700004, 6.451477047000026 ], [ 2.828480003000038, 6.446814533000065 ], [ 2.831411786000047, 6.44494905800002 ], [ 2.83187070200006, 6.44486420800007 ], [ 2.834914023000067, 6.445698126000025 ], [ 2.839162639000051, 6.448657800000035 ], [ 2.839451280000048, 6.448805821000064 ], [ 2.858211869191157, 6.449129903404746 ], [ 2.858835920598459, 6.457046653578489 ], [ 2.858630363898998, 6.460029679938047 ], [ 2.858118389786983, 6.463170001472444 ], [ 2.860012808675617, 6.466842634266666 ], [ 2.864630738031127, 6.469266819551379 ], [ 2.876474835342115, 6.469935574137719 ], [ 2.884268396520827, 6.474297454588175 ], [ 2.888786655909086, 6.481257193730147 ], [ 2.889366554494547, 6.486528292809849 ], [ 2.887901584000076, 6.494434514000034 ], [ 2.886647047000054, 6.505693073000032 ], [ 2.886232695000047, 6.509392311000056 ], [ 2.88553154300007, 6.511425637000059 ], [ 2.892010072000062, 6.511495995000075 ], [ 2.897615623000036, 6.511485673000038 ], [ 2.909561878000034, 6.511487953000028 ], [ 2.914248482000062, 6.511523236000073 ], [ 2.917441808000035, 6.511535257000048 ], [ 2.918865942000025, 6.512948587000039 ], [ 2.922920817000033, 6.512776893000023 ], [ 2.924299248000068, 6.512696681000023 ], [ 2.925482441000042, 6.512352199000077 ], [ 2.926481865000028, 6.511858334000067 ], [ 2.924782364000066, 6.508193215000063 ], [ 2.926540346000024, 6.504654979000065 ], [ 2.928584641000043, 6.506964485000026 ], [ 2.930008765000025, 6.508596067000042 ], [ 2.933879791000038, 6.508596589000035 ], [ 2.935039951000022, 6.508596739000041 ], [ 2.934683631000041, 6.510388918000046 ], [ 2.933557830000041, 6.511124043000052 ], [ 2.932638868000026, 6.511273273000029 ], [ 2.931375225000068, 6.511985398000036 ], [ 2.93367223100006, 6.514685531000055 ], [ 2.93511937300002, 6.516271147000054 ], [ 2.936647362000031, 6.514421674000062 ], [ 2.937658358000022, 6.51319251700005 ], [ 2.943217936000053, 6.513629741000045 ], [ 2.947686288000057, 6.513928928000041 ], [ 2.950339732000032, 6.514124502000072 ], [ 2.954015656000024, 6.512688772000047 ], [ 2.954222814000047, 6.508323114000063 ], [ 2.953800772000022, 6.502622710000026 ], [ 2.954158496000048, 6.501846857000032 ], [ 2.964197703000025, 6.501836086000026 ], [ 2.973616694000043, 6.501913256000023 ], [ 2.982437759000049, 6.501885956000024 ], [ 2.988625399000057, 6.501866806000066 ], [ 2.991976083000054, 6.501856436000025 ], [ 2.998772311000039, 6.501837351000063 ], [ 3.008555050000041, 6.501894723000021 ], [ 3.020233072000053, 6.501817800000026 ], [ 3.027814214000045, 6.501798292000046 ], [ 3.029922674000034, 6.501831585000048 ], [ 3.031546109000033, 6.501800849000062 ], [ 3.03467340800006, 6.501857512000072 ], [ 3.035757860000047, 6.501877160000049 ], [ 3.045922287000053, 6.501010454000038 ], [ 3.059849030000066, 6.501767657000073 ], [ 3.072255453998484, 6.497199016328183 ], [ 3.077245927000035, 6.492390583000031 ], [ 3.079941595000037, 6.493676891000064 ], [ 3.084689677000028, 6.495927889000029 ], [ 3.089499078000074, 6.498270740000066 ], [ 3.091949749000037, 6.499480436000056 ], [ 3.093649860000028, 6.500062214000025 ], [ 3.094752601000039, 6.500245826000025 ], [ 3.096117082505907, 6.500392820089872 ], [ 3.096973353000067, 6.500367951000044 ], [ 3.099142359807883, 6.500234424461361 ], [ 3.103014903507709, 6.499618730320993 ], [ 3.108609417281278, 6.503293343854744 ], [ 3.115875966000033, 6.504855879000047 ], [ 3.119694061000075, 6.505046322000055 ], [ 3.125498687000061, 6.505244050000044 ], [ 3.126310408000052, 6.505243848000021 ], [ 3.128084389000037, 6.505704219000052 ], [ 3.131027902000028, 6.506468098000028 ], [ 3.136710290000053, 6.507661408000047 ], [ 3.142315842000073, 6.507843678000029 ], [ 3.145516237000038, 6.505897365000067 ], [ 3.150999204000072, 6.505941711000048 ], [ 3.151318477000075, 6.506097758000067 ], [ 3.155196284000056, 6.507993068000076 ], [ 3.160445338000045, 6.50806837600004 ], [ 3.163365843000065, 6.511083193000047 ], [ 3.168104722000066, 6.512876729000027 ], [ 3.175323984000045, 6.514787462000072 ], [ 3.177898144000039, 6.51794208900003 ], [ 3.179553291000047, 6.520851940000057 ], [ 3.180120276000025, 6.521678915000052 ], [ 3.184410702000037, 6.527023376000045 ], [ 3.185621166000033, 6.528355605000058 ], [ 3.186724299000048, 6.529350872000066 ], [ 3.188700576000031, 6.530652173000021 ], [ 3.19053883600003, 6.531478657000036 ], [ 3.19430636900006, 6.530787904000022 ], [ 3.19622075500007, 6.530419528000039 ], [ 3.199649774000022, 6.531850140000074 ], [ 3.201089741000033, 6.532446972000059 ], [ 3.201396128000056, 6.532600030000026 ], [ 3.200264197000024, 6.536307453000063 ], [ 3.200357584000074, 6.540045023000062 ], [ 3.201369062000026, 6.541515153000034 ], [ 3.201186286000052, 6.544073342000047 ], [ 3.198629081000036, 6.545774663000032 ], [ 3.199533872000075, 6.54856219100003 ], [ 3.200131983000063, 6.550461392000045 ], [ 3.200071082000022, 6.55138050000005 ], [ 3.199919463000072, 6.552726975000041 ], [ 3.199552825000069, 6.555162691000021 ], [ 3.198451797000075, 6.559697271000061 ], [ 3.197977571000024, 6.561229264000076 ], [ 3.19715128200005, 6.563358798000024 ], [ 3.196493176000047, 6.564722363000044 ], [ 3.195697336000023, 6.566407660000039 ], [ 3.195345253000028, 6.566959247000057 ], [ 3.193553865000069, 6.568874699000048 ], [ 3.192128901000046, 6.567711075000034 ], [ 3.19167010700005, 6.569610690000047 ], [ 3.191716774000042, 6.571479474000057 ], [ 3.192942639000023, 6.572689129000025 ], [ 3.193180004000055, 6.576250458000061 ], [ 3.193281588000048, 6.577774589000057 ], [ 3.20088178900005, 6.584343032000049 ], [ 3.204375038000023, 6.586241051000059 ], [ 3.205080612000074, 6.588553784000055 ], [ 3.210336203000054, 6.59216665100007 ], [ 3.211792482000021, 6.594662872000072 ], [ 3.218396374000065, 6.59868866100004 ], [ 3.22320710300005, 6.60044810100004 ], [ 3.224616983000033, 6.60176481600007 ], [ 3.225367909000056, 6.602484422000032 ], [ 3.227100961000076, 6.607033080000065 ], [ 3.227399839000043, 6.607817417000035 ], [ 3.228495619000057, 6.608913109000071 ], [ 3.231428882000046, 6.611676651000039 ], [ 3.232149174000028, 6.612350307000042 ], [ 3.23235608300007, 6.612579980000021 ], [ 3.233536241000024, 6.613896774000068 ], [ 3.234578612000064, 6.615374469000074 ], [ 3.237830248000023, 6.619846252000059 ], [ 3.238031750000061, 6.646037830000068 ], [ 3.238106454000047, 6.655747966000035 ], [ 3.238049480000029, 6.65673600100007 ], [ 3.238061512000058, 6.657861865000029 ], [ 3.238407639000059, 6.660814233000053 ], [ 3.241476847000058, 6.663558484000021 ], [ 3.243234573696999, 6.664804013413358 ], [ 3.244280464633641, 6.665767387796316 ], [ 3.244904689931159, 6.666757859093833 ], [ 3.246715464022056, 6.669491635653 ], [ 3.248607643176304, 6.671937600093838 ], [ 3.251615165066045, 6.675787319829299 ], [ 3.254099132506811, 6.678630361418858 ], [ 3.256104023238541, 6.68192324061948 ], [ 3.257043517431017, 6.68353907807996 ], [ 3.256810997707296, 6.684510106377492 ], [ 3.256666952000046, 6.685757977000037 ], [ 3.256220137000071, 6.688297153000065 ], [ 3.257221276000053, 6.691053855000064 ], [ 3.257358599000042, 6.692600618000029 ], [ 3.257394661000035, 6.693006797000066 ], [ 3.257746197000074, 6.696956686000021 ], [ 3.260409406000065, 6.699099788000069 ], [ 3.262813480000034, 6.700103745000035 ], [ 3.26305293300004, 6.700208927000062 ], [ 3.264546886000062, 6.700428319000025 ], [ 3.265772601000037, 6.700437231000024 ], [ 3.268865138000024, 6.699583491000055 ], [ 3.269726391000063, 6.698539487000062 ], [ 3.27245543600003, 6.698423097000045 ], [ 3.273976438000034, 6.697288075000074 ], [ 3.277270045000023, 6.694830275000072 ], [ 3.27833261847194, 6.694043206550381 ], [ 3.278413710694337, 6.693590447582591 ], [ 3.279689420375969, 6.692800425167201 ], [ 3.280395233204495, 6.691722686538884 ], [ 3.281691218000049, 6.689906893000057 ], [ 3.284995633000051, 6.687195964000068 ], [ 3.285225616000048, 6.687007288000075 ], [ 3.285464883000031, 6.686796528000059 ], [ 3.288403276000054, 6.685596289000046 ], [ 3.288623464000068, 6.685509997000054 ], [ 3.29015054100006, 6.685130939000032 ], [ 3.290796780000051, 6.68494387100003 ], [ 3.290911831000074, 6.684914922000075 ], [ 3.295135043000073, 6.683852285000057 ], [ 3.297724833000075, 6.683211205000021 ], [ 3.29810856000006, 6.682929986000033 ], [ 3.299630399000023, 6.681837664000057 ], [ 3.301226882000037, 6.680682107000052 ], [ 3.302172786000028, 6.680437399000027 ], [ 3.306930614000066, 6.679075956000077 ], [ 3.307393780000041, 6.678619961000038 ], [ 3.308251216000031, 6.677788432000057 ], [ 3.309709018000035, 6.676861838000036 ], [ 3.31046516400005, 6.676373106000028 ], [ 3.310689327234529, 6.67607765316275 ], [ 3.311231151363723, 6.675440211476271 ], [ 3.311824968468985, 6.674865138660613 ], [ 3.312409504518031, 6.674673876314834 ], [ 3.314590600993274, 6.674825183654278 ], [ 3.31554090527241, 6.674329426280302 ], [ 3.315961409423234, 6.674893257670203 ], [ 3.316602783784528, 6.675220298811373 ], [ 3.317225298536993, 6.675666171468866 ], [ 3.317582492000042, 6.675237895000066 ], [ 3.320425722000039, 6.674248054000032 ], [ 3.32216612600007, 6.673655269000051 ], [ 3.323676202000058, 6.673148925000021 ], [ 3.324849841000059, 6.672755614000039 ], [ 3.328053618000069, 6.67168113200006 ], [ 3.328078302000051, 6.671651785000051 ], [ 3.330314201000022, 6.671720056000026 ], [ 3.33429561500003, 6.671757583000044 ], [ 3.336438567000073, 6.671773358000053 ], [ 3.339357132000032, 6.67181731200003 ], [ 3.340862359000027, 6.671816274000037 ], [ 3.343597952000039, 6.67311256000005 ], [ 3.345033851000039, 6.672554372000036 ], [ 3.34519380200004, 6.671250333000046 ], [ 3.346535157000062, 6.666969982000069 ], [ 3.348117296000055, 6.662000158000069 ], [ 3.348417298000072, 6.661161794000066 ], [ 3.348762338000029, 6.660766002000059 ], [ 3.35093043400002, 6.65988169000002 ], [ 3.351639825000063, 6.659607466000068 ], [ 3.352630899000076, 6.659216776000051 ], [ 3.352998214000024, 6.658707197000069 ], [ 3.353350239000065, 6.658239753000032 ], [ 3.35404838200003, 6.657300232000068 ], [ 3.35207960750913, 6.655970486003657 ], [ 3.351940693613555, 6.65419344988775 ], [ 3.352456122216295, 6.653463435811941 ], [ 3.352703364000035, 6.652300890000049 ], [ 3.354374353747372, 6.652268651601156 ], [ 3.355402056685222, 6.651956241264034 ], [ 3.358087126800595, 6.651354560632031 ], [ 3.360381773415784, 6.650565402508446 ], [ 3.363685629000031, 6.649428232000048 ], [ 3.36411348300004, 6.648897882000028 ], [ 3.364591438000048, 6.648357876000034 ], [ 3.367760992000058, 6.644724577000034 ], [ 3.370554557000048, 6.641725955000027 ], [ 3.372670081000024, 6.641102084000067 ], [ 3.378430309000066, 6.639288194000073 ], [ 3.380790565000041, 6.640695620000031 ], [ 3.383931352000047, 6.641106776000072 ], [ 3.382229331000076, 6.639070830000037 ], [ 3.390778050000051, 6.639768780000054 ], [ 3.392538763000061, 6.638496016000033 ], [ 3.431207830000062, 6.640632218000064 ], [ 3.431462138000029, 6.640641187000028 ], [ 3.440269059000059, 6.640770993000046 ], [ 3.452062009000031, 6.640944811000054 ], [ 3.448072500000023, 6.654906623000045 ], [ 3.447675807065417, 6.661772915610614 ], [ 3.44207406633398, 6.662760986191519 ], [ 3.442467865349399, 6.668537135773541 ], [ 3.444150577907224, 6.671089693523351 ], [ 3.443471018007261, 6.673893769057161 ], [ 3.439770517523136, 6.675487673556809 ], [ 3.439240083514254, 6.682807433257341 ], [ 3.443198472849416, 6.685909036193821 ], [ 3.453939758828662, 6.676738907993282 ], [ 3.45901996071644, 6.673523020342545 ], [ 3.461350586000037, 6.683327683000073 ], [ 3.483216966000043, 6.683319831000063 ], [ 3.491505332000031, 6.68331162800007 ], [ 3.49477648900006, 6.683336115000031 ], [ 3.509187191000024, 6.683254409000028 ], [ 3.523961755000073, 6.683210189000022 ], [ 3.529810492000024, 6.683222855000054 ], [ 3.529879263000055, 6.683223003000023 ], [ 3.552492311000037, 6.683281757000032 ], [ 3.552690668000025, 6.68330751000002 ], [ 3.553418415000067, 6.683335412000076 ], [ 3.563146891000031, 6.683410542000047 ], [ 3.567340847000025, 6.683434447000025 ], [ 3.57591072300005, 6.683520231000045 ], [ 3.578946078000058, 6.683545391000052 ], [ 3.580114156000036, 6.683467430000064 ], [ 3.580441548000067, 6.683391082000071 ], [ 3.581077255000025, 6.683321404000026 ], [ 3.581781931000023, 6.68327462000002 ], [ 3.583888424000065, 6.683241492000036 ], [ 3.58537443900002, 6.683201435000058 ], [ 3.60144533700003, 6.683167319000063 ], [ 3.601491448000047, 6.683272731000045 ], [ 3.61832624300007, 6.68329112300006 ], [ 3.632107836000046, 6.683306179000056 ], [ 3.670958075000044, 6.682991510000022 ], [ 3.681562272000065, 6.682929080000065 ], [ 3.684938137000074, 6.68342698500004 ], [ 3.687522770000044, 6.682992593000051 ], [ 3.690421576000062, 6.682371701000022 ], [ 3.691189019000035, 6.682371963000037 ], [ 3.692374776000065, 6.682786340000064 ], [ 3.696285484000043, 6.684152984000036 ], [ 3.699014341000066, 6.684149117000061 ], [ 3.724774966000041, 6.684127197000066 ], [ 3.740453655000067, 6.684008136000045 ], [ 3.754265342000053, 6.683987169000034 ], [ 3.755180387000053, 6.683994056000074 ], [ 3.75724660100002, 6.682727251000074 ], [ 3.764619264000032, 6.682773295000061 ], [ 3.774634455000069, 6.68275764200007 ], [ 3.792520310000043, 6.682901492000042 ], [ 3.799835190000067, 6.682774790000053 ], [ 3.817146561000072, 6.682976114000041 ], [ 3.827308420000065, 6.682847994000042 ], [ 3.83817203600006, 6.68271102600005 ], [ 3.862319108000065, 6.682688476000067 ], [ 3.867316840000058, 6.682583972000032 ], [ 3.887843505000035, 6.681973030000051 ], [ 3.898260141000037, 6.681762688000049 ], [ 3.903000777000045, 6.681570656000076 ], [ 3.912122879000037, 6.68120114200002 ], [ 3.914000272000067, 6.681638 ], [ 3.93300285600003, 6.685335660000021 ], [ 3.941890888000046, 6.686888626000041 ], [ 3.958791735000034, 6.689341450000029 ], [ 3.967793826000047, 6.690424653000036 ], [ 3.968090018000055, 6.690465256000039 ], [ 3.978807413000027, 6.691934446000062 ], [ 3.981811652000033, 6.68439190600003 ], [ 3.982532115000026, 6.682713381000042 ], [ 3.989425281000024, 6.682573223000077 ], [ 3.993928764000032, 6.682460771000024 ], [ 4.000431134000053, 6.682252327000072 ], [ 4.002442878000068, 6.682198460000052 ], [ 4.022140409000031, 6.681583630000034 ], [ 4.040090366000072, 6.680899921000048 ], [ 4.047653356000069, 6.680668516000026 ], [ 4.063234023000064, 6.680204381000067 ], [ 4.073190354000076, 6.67994348600007 ], [ 4.085006976000045, 6.679777243000046 ], [ 4.091332317000024, 6.67968825500003 ], [ 4.096914880000043, 6.671539592000045 ], [ 4.093887719000065, 6.666377388000058 ], [ 4.094875587000047, 6.658550017000039 ], [ 4.095799494000062, 6.654264461000025 ], [ 4.096370125000021, 6.652564151000036 ], [ 4.095179373000065, 6.651615974000038 ], [ 4.095103428000073, 6.651555501000075 ], [ 4.090016646000038, 6.647504978000029 ], [ 4.093292661000021, 6.646229450000021 ], [ 4.088087175000055, 6.640760884000031 ], [ 4.083290749000071, 6.636248562000048 ], [ 4.079221023000059, 6.635707040000057 ], [ 4.076152676000049, 6.633416392000072 ], [ 4.070596941000076, 6.631849006000039 ], [ 4.066693306000047, 6.634893894000072 ], [ 4.064332484000033, 6.636146545000031 ], [ 4.062815835000038, 6.636449926000068 ], [ 4.058516631000032, 6.634483356000032 ], [ 4.062381102000074, 6.628588190000073 ], [ 4.059561892000033, 6.624071663000052 ], [ 4.05755578000003, 6.62076081500004 ], [ 4.054730321000022, 6.622011112000052 ], [ 4.05467851100002, 6.620443737000073 ], [ 4.054489672000045, 6.61522457500007 ], [ 4.058370371000024, 6.608655527000053 ], [ 4.058602119000057, 6.596034366000026 ], [ 4.061196912000071, 6.585169589000031 ], [ 4.06297350400007, 6.583395550000034 ], [ 4.063121662000071, 6.583247606000043 ], [ 4.069678657000054, 6.576700037000023 ], [ 4.07022696000007, 6.576181758000075 ], [ 4.069640786000036, 6.572552574000042 ], [ 4.071729730000072, 6.571265102000041 ], [ 4.077395893000073, 6.571099783000022 ], [ 4.090486869000074, 6.569616473000053 ], [ 4.098761843000034, 6.571895690000076 ], [ 4.100973724000028, 6.567908835000026 ], [ 4.10133421200004, 6.55772332500004 ], [ 4.109519559000034, 6.55418276000006 ], [ 4.116797346000055, 6.555774724000059 ], [ 4.118802362000054, 6.562126097000032 ], [ 4.11966330100006, 6.56484914300006 ], [ 4.121270135000032, 6.569931367000038 ], [ 4.128171862000045, 6.574433853000073 ], [ 4.131782934000057, 6.579786019000039 ], [ 4.135845010000025, 6.581384900000046 ], [ 4.144423232000065, 6.582207664000066 ], [ 4.156231035000076, 6.58884254000003 ], [ 4.16329072000002, 6.595181877000073 ], [ 4.177784631000065, 6.604107106000072 ], [ 4.193155571000034, 6.595341056000052 ], [ 4.206331026000043, 6.597223713000062 ], [ 4.213609710000071, 6.598890673000028 ], [ 4.21666896000005, 6.597351742000058 ], [ 4.222408090000044, 6.595729662000053 ], [ 4.224011258000075, 6.593734820000066 ], [ 4.23589585700006, 6.578183963000072 ], [ 4.240955593000024, 6.571563357000059 ], [ 4.239324706000048, 6.562302050000028 ], [ 4.232702015000029, 6.546927139000047 ], [ 4.22564036600005, 6.539746501000025 ], [ 4.210754620000046, 6.531143793000069 ], [ 4.208619093000038, 6.529909638000049 ], [ 4.197897155000021, 6.528710062000073 ], [ 4.191611261000048, 6.525508837000075 ], [ 4.185247071000049, 6.521541957000068 ], [ 4.18172316600004, 6.520707903000073 ], [ 4.178116448000026, 6.517193893000069 ], [ 4.17351055000006, 6.511997518000044 ], [ 4.16760991600006, 6.509713936000026 ], [ 4.163622323000027, 6.506966423000051 ], [ 4.164152441000056, 6.50443821600004 ], [ 4.165389693000066, 6.502661696000075 ], [ 4.167891590000067, 6.499069324000061 ], [ 4.169319558000041, 6.487503162000053 ], [ 4.173446656000067, 6.484430619000022 ], [ 4.177504071000044, 6.484344640000074 ], [ 4.183013049000067, 6.48295347100003 ], [ 4.19578232300006, 6.476184967000052 ], [ 4.202134879000027, 6.475480799000024 ], [ 4.204882915000042, 6.472105015000068 ], [ 4.214147050000065, 6.472465833000058 ], [ 4.219355940000071, 6.473755115000074 ], [ 4.224790638000059, 6.473435746000064 ], [ 4.230750268000065, 6.468597203000058 ], [ 4.234937721000051, 6.459091929000067 ], [ 4.238376268000025, 6.456480079000073 ], [ 4.243810547000066, 6.456083971000055 ], [ 4.247559350000074, 6.455155924000053 ], [ 4.25068370300005, 6.449328705000028 ], [ 4.260086784000066, 6.444175170000051 ], [ 4.264146199000038, 6.445084003000034 ], [ 4.265924135000034, 6.452047709000055 ], [ 4.276268262000031, 6.455927102000032 ], [ 4.279864049000025, 6.455075785000076 ], [ 4.280392803000041, 6.455165319000059 ], [ 4.284765427000025, 6.455905740000048 ], [ 4.291334058000075, 6.450069662000033 ], [ 4.293936362000068, 6.449909920000039 ], [ 4.303115859000059, 6.447359676000076 ], [ 4.312220063000041, 6.445345478000036 ], [ 4.321038983000051, 6.451448404000075 ], [ 4.32837891500003, 6.44806021100004 ], [ 4.353724428000021, 6.451056360000052 ], [ 4.368629518000034, 6.438459141000067 ], [ 4.367156179000062, 6.407146073000035 ], [ 4.362509352000075, 6.386637690000043 ], [ 4.359663678975919, 6.367825532926277 ], [ 4.350837708000029, 6.370382299000028 ], [ 4.342169901000034, 6.371093366000025 ], [ 4.329501454000024, 6.372881432000042 ], [ 4.292899807000026, 6.376991055000076 ], [ 4.278975245000026, 6.378159915000026 ], [ 4.273194852000074, 6.378789823000034 ], [ 4.266689083000074, 6.378853712000023 ], [ 4.259274965000031, 6.37915902900005 ], [ 4.252149123000038, 6.379989982000041 ], [ 4.19786984700005, 6.387537200000054 ], [ 4.19220073200006, 6.388067498000055 ], [ 4.186358854000048, 6.389045844000066 ], [ 4.153041217000066, 6.395979202000035 ], [ 4.151136076000057, 6.39636252300005 ], [ 4.147463360000074, 6.397036947000061 ], [ 4.137029946000041, 6.398714184000028 ], [ 4.131314339000028, 6.399829502000046 ], [ 4.126046497000061, 6.400943779000045 ], [ 4.12181973600002, 6.401341415000047 ], [ 4.119810367000071, 6.401345800000058 ], [ 4.114790884000058, 6.403175421000071 ], [ 4.102308822000055, 6.405451825000057 ], [ 4.091356971000039, 6.407437525000034 ], [ 4.084564347000025, 6.407978398000068 ], [ 4.077010615000063, 6.410626673000024 ], [ 4.068160716000023, 6.411219515000028 ], [ 4.059839528000055, 6.413007652000033 ], [ 4.057448403000024, 6.413539065000066 ], [ 4.053574490000074, 6.414264963000051 ], [ 4.048360523000042, 6.414802130000055 ], [ 4.036115203000065, 6.416262882000069 ], [ 4.024539790000063, 6.417817737000064 ], [ 4.011290240000051, 6.419662821000031 ], [ 4.004498418000026, 6.420824879000065 ], [ 3.995602260000055, 6.422469572000068 ], [ 3.990089015000024, 6.423399030000041 ], [ 3.975510058000054, 6.425839296000049 ], [ 3.969616798000061, 6.426616300000035 ], [ 3.955112835000023, 6.42836664500004 ], [ 3.949525490000042, 6.429027983000026 ], [ 3.944886502000031, 6.429292678000024 ], [ 3.941083162000041, 6.429586870000037 ], [ 3.924530190000041, 6.430885438000075 ], [ 3.914651443000025, 6.431932268000025 ], [ 3.909006262000048, 6.432444903000032 ], [ 3.896424394000064, 6.433735507000051 ], [ 3.884441326000058, 6.43404319800004 ], [ 3.872885943000028, 6.434110927000063 ], [ 3.871905083000058, 6.434136534000061 ], [ 3.860232532000055, 6.435687966000046 ], [ 3.853445159000046, 6.435367791000033 ], [ 3.853438641000025, 6.435251828000048 ], [ 3.84568734800007, 6.435432240000068 ], [ 3.834801430000027, 6.435330479000072 ], [ 3.830686381000021, 6.435337185000037 ], [ 3.820686143000046, 6.435544802000038 ], [ 3.812958429000048, 6.435557155000026 ], [ 3.80544560800007, 6.435305796000023 ], [ 3.796616092000022, 6.434529866000048 ], [ 3.789987969000038, 6.433941843000071 ], [ 3.780631754000069, 6.432927119000055 ], [ 3.767308901000035, 6.431199542000058 ], [ 3.760512695000045, 6.430180591000067 ], [ 3.750916908000022, 6.42890240600002 ], [ 3.737468622000051, 6.427198812000029 ], [ 3.733064679000051, 6.426864497000054 ], [ 3.721915403000025, 6.425333330000058 ], [ 3.714778377000073, 6.424148617000071 ], [ 3.69759778100007, 6.423728122000057 ], [ 3.687828191000051, 6.423327779000033 ], [ 3.679666091000058, 6.422725994000075 ], [ 3.672300240000027, 6.422138349000022 ], [ 3.662209592000067, 6.422120864000021 ], [ 3.640267177000055, 6.42194964600003 ], [ 3.628235537740436, 6.421851465267137 ], [ 3.627821542664667, 6.421898283679583 ], [ 3.616250207000064, 6.421730187000037 ], [ 3.603024216000051, 6.421650199000055 ], [ 3.596229434000065, 6.421658155000046 ], [ 3.588764469000068, 6.421437031000039 ], [ 3.57609345000003, 6.421317415000033 ], [ 3.570906255000068, 6.421170048000022 ], [ 3.563039264000054, 6.420891555000026 ], [ 3.560014882000075, 6.420703402000072 ], [ 3.550320232000047, 6.420551458000034 ], [ 3.543444686000043, 6.420252448000042 ], [ 3.524089287000038, 6.419659915000068 ], [ 3.519921229000033, 6.41948207400003 ], [ 3.517107501000055, 6.419398761000025 ], [ 3.508743179000021, 6.419455004000042 ], [ 3.50221126200006, 6.419545440000036 ], [ 3.497473975000048, 6.419530916000042 ], [ 3.496650916000021, 6.419512568000073 ], [ 3.491797653000049, 6.418320556000026 ], [ 3.484802420000051, 6.418968652000046 ], [ 3.481826360000071, 6.419277814000054 ], [ 3.477336454000067, 6.417721526000037 ], [ 3.471297342000071, 6.417411188000074 ], [ 3.467794529000059, 6.417299515000025 ], [ 3.460916052000073, 6.42012038200005 ], [ 3.457968115000028, 6.419807098000035 ], [ 3.457243597000058, 6.419728772000042 ], [ 3.453406251000047, 6.419288332000065 ], [ 3.448639764000063, 6.418746833000057 ], [ 3.446652940000035, 6.41871410400006 ], [ 3.44294921900007, 6.418700087000047 ], [ 3.43995174600002, 6.418639484000039 ], [ 3.439504215000056, 6.41905919200002 ], [ 3.437392742000043, 6.420996785000057 ], [ 3.434694687000047, 6.421923894000031 ], [ 3.433965619000048, 6.42215427900004 ], [ 3.433586724000065, 6.422263740000062 ], [ 3.430424059000075, 6.423817335000024 ], [ 3.430112604000044, 6.422180506000075 ], [ 3.428616807000026, 6.421712876000072 ], [ 3.426654298000074, 6.421015640000064 ], [ 3.423960773000033, 6.420244378000064 ], [ 3.421640440000033, 6.419664217000047 ], [ 3.418676909000055, 6.41899266300004 ], [ 3.415973705000056, 6.418328540000061 ], [ 3.413224464000052, 6.417534237000041 ], [ 3.412285704000055, 6.417237808000039 ], [ 3.410183533000065, 6.416576998000039 ], [ 3.40875144000006, 6.41610711900006 ], [ 3.40758291800006, 6.414917087000049 ], [ 3.405199897000045, 6.412468119000039 ], [ 3.404617598000073, 6.411924796000051 ], [ 3.403799954000021, 6.409049512000024 ], [ 3.402744379000069, 6.405408520000037 ], [ 3.401935286000025, 6.402505922000046 ], [ 3.401715578000051, 6.401717720000022 ], [ 3.40172633800006, 6.400790982000046 ], [ 3.40171695600003, 6.398581386000046 ], [ 3.377091507074725, 6.398044023261379 ], [ 3.359591687000034, 6.397662152000066 ], [ 3.353132292000055, 6.398193185000025 ], [ 3.346649227000057, 6.399131037000075 ], [ 3.341290555000057, 6.399972326000068 ], [ 3.337271518000023, 6.400573338000072 ], [ 3.334998841000072, 6.400909906000038 ], [ 3.333874386000048, 6.400958507000041 ], [ 3.331840740000075, 6.40095982400004 ], [ 3.325857667000037, 6.401204913000072 ], [ 3.324142713000072, 6.401221316000033 ], [ 3.318967311000051, 6.401408371000059 ], [ 3.313837802000023, 6.401534075000029 ], [ 3.309106432000021, 6.401705442000036 ], [ 3.306111369000064, 6.401890512000023 ], [ 3.30418206500002, 6.40195293000005 ], [ 3.302237448000028, 6.402015350000056 ], [ 3.300553103000027, 6.402016339000056 ], [ 3.298685001000024, 6.402002110000069 ], [ 3.296104881000076, 6.401989307000065 ], [ 3.292238540000028, 6.40199152200006 ], [ 3.290247927000053, 6.401954355000044 ], [ 3.28762570400005, 6.401954235000062 ], [ 3.285127893000038, 6.401955627000063 ], [ 3.282300919000022, 6.402050246000044 ], [ 3.279965853000022, 6.402151091000064 ], [ 3.275938832000065, 6.40234883100004 ], [ 3.269010155000046, 6.402601425000057 ], [ 3.258195969000042, 6.402855894000027 ], [ 3.246750001000066, 6.402842374000045 ], [ 3.241165710000075, 6.402763740000069 ], [ 3.239726250000047, 6.40260552500007 ], [ 3.237796902000071, 6.40261791000006 ], [ 3.23587899100005, 6.402526886000032 ], [ 3.232801155000061, 6.402401916000031 ], [ 3.230240121000065, 6.402299673000073 ], [ 3.226840708000054, 6.402128857000037 ], [ 3.224153329000046, 6.401980685000069 ], [ 3.221546356000033, 6.40186693000004 ], [ 3.219146114000068, 6.401787540000043 ], [ 3.217067437000026, 6.401719491000051 ], [ 3.214713123000024, 6.401617083000076 ], [ 3.212887129000023, 6.401617843000054 ], [ 3.210062060000041, 6.401756869000053 ], [ 3.207926022000038, 6.401838158000032 ], [ 3.205755526000075, 6.401907964000031 ], [ 3.203619495000055, 6.402012213000035 ], [ 3.201732268000058, 6.402062741000066 ], [ 3.181216715000062, 6.402429808000022 ], [ 3.170689252000045, 6.401835048000066 ], [ 3.162673878000021, 6.400880263000033 ], [ 3.12427314200005, 6.400053273000026 ], [ 3.110396115000071, 6.399099054000033 ], [ 3.072832934000076, 6.398387709000076 ], [ 3.036944533000053, 6.396596437000028 ], [ 3.020770954000056, 6.397046121000074 ] ] ] ] } }
]
}
